{
  "type": "FeatureCollection",
  "features": [
    {
      "type": "Feature",
      "properties": {
        "norad_id": 40069,
        "name": "METEOR-M 2",
        "group": "weather",
        "lat": 39.588303827903395,
        "lon": 156.46324126199931,
        "alt_km": 815.3580838441185,
        "timestamp": "2025-12-17T23:38:06.507225+00:00",
        "meta_object_name": "METEOR-M 2",
        "meta_object_id": "2014-037A",
        "meta_epoch": "2025-12-17T14:31:55.505856",
        "meta_mean_motion": 14.21388153,
        "meta_eccentricity": 0.0005177,
        "meta_inclination": 98.4897,
        "meta_ra_of_asc_node": 329.0037,
        "meta_arg_of_pericenter": 194.3803,
        "meta_mean_anomaly": 165.7229,
        "meta_ephemeris_type": 0,
        "meta_classification_type": "U",
        "meta_norad_cat_id": 40069,
        "meta_element_set_no": 999,
        "meta_rev_at_epoch": 59352,
        "meta_bstar": 2.1630908e-05,
        "meta_mean_motion_dot": 5e-08,
        "meta_mean_motion_ddot": 0,
        "tle_line1": "1 40069U 14037A   25351.60550354  .00000005  00000+0  21631-4 0  9999",
        "tle_line2": "2 40069  98.4897 329.0037 0005177 194.3803 165.7229 14.21388153593520"
      },
      "geometry": {
        "type": "Point",
        "coordinates": [
          156.46324126199931,
          39.588303827903395
        ]
      }
    },
    {
      "type": "Feature",
      "properties": {
        "norad_id": 40267,
        "name": "HIMAWARI-8",
        "group": "weather",
        "lat": -0.00949619860040651,
        "lon": -137.97031885082336,
        "alt_km": 35784.69825103822,
        "timestamp": "2025-12-17T23:38:06.507236+00:00",
        "meta_object_name": "HIMAWARI-8",
        "meta_object_id": "2014-060A",
        "meta_epoch": "2025-12-17T13:59:41.201664",
        "meta_mean_motion": 1.00272227,
        "meta_eccentricity": 8.538e-05,
        "meta_inclination": 0.0066,
        "meta_ra_of_asc_node": 50.9133,
        "meta_arg_of_pericenter": 240.1287,
        "meta_mean_anomaly": 146.0068,
        "meta_ephemeris_type": 0,
        "meta_classification_type": "U",
        "meta_norad_cat_id": 40267,
        "meta_element_set_no": 999,
        "meta_rev_at_epoch": 4093,
        "meta_bstar": 0,
        "meta_mean_motion_dot": -2.5e-06,
        "meta_mean_motion_ddot": 0,
        "tle_line1": "1 40267U 14060A   25351.58311576 -.00000250  00000+0  00000+0 0  9998",
        "tle_line2": "2 40267   0.0066  50.9133 0000853 240.1287 146.0068  1.00272227 40938"
      },
      "geometry": {
        "type": "Point",
        "coordinates": [
          -137.97031885082336,
          -0.00949619860040651
        ]
      }
    },
    {
      "type": "Feature",
      "properties": {
        "norad_id": 40367,
        "name": "FENGYUN 2G",
        "group": "weather",
        "lat": 4.985566654280505,
        "lon": -179.2256492773093,
        "alt_km": 35789.9370849611,
        "timestamp": "2025-12-17T23:38:06.507249+00:00",
        "meta_object_name": "FENGYUN 2G",
        "meta_object_id": "2014-090A",
        "meta_epoch": "2025-12-17T16:07:52.198752",
        "meta_mean_motion": 1.00262466,
        "meta_eccentricity": 0.00028289,
        "meta_inclination": 5.1805,
        "meta_ra_of_asc_node": 75.0413,
        "meta_arg_of_pericenter": 204.7271,
        "meta_mean_anomaly": 148.1224,
        "meta_ephemeris_type": 0,
        "meta_classification_type": "U",
        "meta_norad_cat_id": 40367,
        "meta_element_set_no": 999,
        "meta_rev_at_epoch": 4017,
        "meta_bstar": 0,
        "meta_mean_motion_dot": -2.79e-06,
        "meta_mean_motion_ddot": 0,
        "tle_line1": "1 40367U 14090A   25351.67213193 -.00000279  00000+0  00000+0 0  9999",
        "tle_line2": "2 40367   5.1805  75.0413 0002828 204.7271 148.1224  1.00262466 40175"
      },
      "geometry": {
        "type": "Point",
        "coordinates": [
          -179.2256492773093,
          4.985566654280505
        ]
      }
    },
    {
      "type": "Feature",
      "properties": {
        "norad_id": 40732,
        "name": "METEOSAT-11 (MSG-4)",
        "group": "weather",
        "lat": 0.9023499945543918,
        "lon": 90.56508511343385,
        "alt_km": 35788.27342788174,
        "timestamp": "2025-12-17T23:38:06.507261+00:00",
        "meta_object_name": "METEOSAT-11 (MSG-4)",
        "meta_object_id": "2015-034A",
        "meta_epoch": "2025-12-17T04:48:34.026048",
        "meta_mean_motion": 1.00268884,
        "meta_eccentricity": 8.998e-05,
        "meta_inclination": 2.747,
        "meta_ra_of_asc_node": 71.9903,
        "meta_arg_of_pericenter": 132.6225,
        "meta_mean_anomaly": 322.8401,
        "meta_ephemeris_type": 0,
        "meta_classification_type": "U",
        "meta_norad_cat_id": 40732,
        "meta_element_set_no": 999,
        "meta_rev_at_epoch": 539,
        "meta_bstar": 0,
        "meta_mean_motion_dot": 8.3e-07,
        "meta_mean_motion_ddot": 0,
        "tle_line1": "1 40732U 15034A   25351.20039382  .00000083  00000+0  00000+0 0  9991",
        "tle_line2": "2 40732   2.7470  71.9903 0000899 132.6225 322.8401  1.00268884  5398"
      },
      "geometry": {
        "type": "Point",
        "coordinates": [
          90.56508511343385,
          0.9023499945543918
        ]
      }
    },
    {
      "type": "Feature",
      "properties": {
        "norad_id": 41105,
        "name": "ELEKTRO-L 2",
        "group": "weather",
        "lat": -0.6108650253046292,
        "lon": 66.9480816174316,
        "alt_km": 35798.6914188219,
        "timestamp": "2025-12-17T23:38:06.507273+00:00",
        "meta_object_name": "ELEKTRO-L 2",
        "meta_object_id": "2015-074A",
        "meta_epoch": "2025-12-17T02:58:11.708832",
        "meta_mean_motion": 1.00272669,
        "meta_eccentricity": 0.00036686,
        "meta_inclination": 6.2364,
        "meta_ra_of_asc_node": 72.7769,
        "meta_arg_of_pericenter": 209.1186,
        "meta_mean_anomaly": 194.171,
        "meta_ephemeris_type": 0,
        "meta_classification_type": "U",
        "meta_norad_cat_id": 41105,
        "meta_element_set_no": 999,
        "meta_rev_at_epoch": 3668,
        "meta_bstar": 0,
        "meta_mean_motion_dot": -9.8e-07,
        "meta_mean_motion_ddot": 0,
        "tle_line1": "1 41105U 15074A   25351.12374663 -.00000098  00000+0  00000+0 0  9992",
        "tle_line2": "2 41105   6.2364  72.7769 0003668 209.1186 194.1710  1.00272669 36681"
      },
      "geometry": {
        "type": "Point",
        "coordinates": [
          66.9480816174316,
          -0.6108650253046292
        ]
      }
    },
    {
      "type": "Feature",
      "properties": {
        "norad_id": 41752,
        "name": "INSAT-3DR",
        "group": "weather",
        "lat": 0.09861362481952055,
        "lon": 155.21220015974262,
        "alt_km": 35812.38366889918,
        "timestamp": "2025-12-17T23:38:06.507285+00:00",
        "meta_object_name": "INSAT-3DR",
        "meta_object_id": "2016-054A",
        "meta_epoch": "2025-12-17T13:40:43.019040",
        "meta_mean_motion": 1.00271592,
        "meta_eccentricity": 0.00141591,
        "meta_inclination": 0.1039,
        "meta_ra_of_asc_node": 86.6386,
        "meta_arg_of_pericenter": 184.6913,
        "meta_mean_anomaly": 94.2841,
        "meta_ephemeris_type": 0,
        "meta_classification_type": "U",
        "meta_norad_cat_id": 41752,
        "meta_element_set_no": 999,
        "meta_rev_at_epoch": 3399,
        "meta_bstar": 0,
        "meta_mean_motion_dot": -5.2e-07,
        "meta_mean_motion_ddot": 0,
        "tle_line1": "1 41752U 16054A   25351.56994235 -.00000052  00000+0  00000+0 0  9990",
        "tle_line2": "2 41752   0.1039  86.6386 0014159 184.6913  94.2841  1.00271592 33992"
      },
      "geometry": {
        "type": "Point",
        "coordinates": [
          155.21220015974262,
          0.09861362481952055
        ]
      }
    },
    {
      "type": "Feature",
      "properties": {
        "norad_id": 41836,
        "name": "HIMAWARI-9",
        "group": "weather",
        "lat": -0.023728728737093994,
        "lon": -137.89091348036595,
        "alt_km": 35785.999276098635,
        "timestamp": "2025-12-17T23:38:06.507297+00:00",
        "meta_object_name": "HIMAWARI-9",
        "meta_object_id": "2016-064A",
        "meta_epoch": "2025-12-17T12:55:35.210208",
        "meta_mean_motion": 1.00268614,
        "meta_eccentricity": 9.785e-05,
        "meta_inclination": 0.0129,
        "meta_ra_of_asc_node": 280.3424,
        "meta_arg_of_pericenter": 17.6826,
        "meta_mean_anomaly": 123.0419,
        "meta_ephemeris_type": 0,
        "meta_classification_type": "U",
        "meta_norad_cat_id": 41836,
        "meta_element_set_no": 999,
        "meta_rev_at_epoch": 3338,
        "meta_bstar": 0,
        "meta_mean_motion_dot": -2.5e-06,
        "meta_mean_motion_ddot": 0,
        "tle_line1": "1 41836U 16064A   25351.53860197 -.00000250  00000+0  00000+0 0  9990",
        "tle_line2": "2 41836   0.0129 280.3424 0000978  17.6826 123.0419  1.00268614 33388"
      },
      "geometry": {
        "type": "Point",
        "coordinates": [
          -137.89091348036595,
          -0.023728728737093994
        ]
      }
    }
  ]
}